[{"OBJECT_NAME":"STARLINK-35188","OBJECT_ID":"2025-200C","EPOCH":"2026-03-09T17:54:31.856256","MEAN_MOTION":15.05649129,"ECCENTRICITY":6.943e-5,"INCLINATION":97.6033,"RA_OF_ASC_NODE":139.9184,"ARG_OF_PERICENTER":18.8489,"MEAN_ANOMALY":341.2763,"EPHEMERIS_TYPE":0,"CLASSIFICATION_TYPE":"U","NORAD_CAT_ID":65522,"ELEMENT_SET_NO":999,"REV_AT_EPOCH":2914,"BSTAR":0.00037426778,"MEAN_MOTION_DOT":5.343e-5,"MEAN_MOTION_DDOT":0},{"OBJECT_NAME":"COSMOS 2251 DEB","OBJECT_ID":"1993-036HX","EPOCH":"2026-03-09T21:31:03.673056","MEAN_MOTION":15.04193551,"ECCENTRICITY":0.00046843,"INCLINATION":74.0171,"RA_OF_ASC_NODE":332.1487,"ARG_OF_PERICENTER":332.3762,"MEAN_ANOMALY":27.7177,"EPHEMERIS_TYPE":0,"CLASSIFICATION_TYPE":"U","NORAD_CAT_ID":34036,"ELEMENT_SET_NO":999,"REV_AT_EPOCH":89876,"BSTAR":0.0040391987,"MEAN_MOTION_DOT":0.00056541,"MEAN_MOTION_DDOT":0}]
